[{"OBJECT_NAME":"OBJECT M","OBJECT_ID":"2025-313M","EPOCH":"2026-03-09T22:20:16.857024","MEAN_MOTION":15.2204252,"ECCENTRICITY":0.00144876,"INCLINATION":97.404,"RA_OF_ASC_NODE":145.2434,"ARG_OF_PERICENTER":355.7069,"MEAN_ANOMALY":4.404,"EPHEMERIS_TYPE":0,"CLASSIFICATION_TYPE":"U","NORAD_CAT_ID":67259,"ELEMENT_SET_NO":999,"REV_AT_EPOCH":1085,"BSTAR":0.00067362999,"MEAN_MOTION_DOT":0.00015392,"MEAN_MOTION_DDOT":0},{"OBJECT_NAME":"NASBSAT-1","OBJECT_ID":"2025-313AT","EPOCH":"2026-03-09T22:27:05.348448","MEAN_MOTION":15.23392986,"ECCENTRICITY":0.00090189,"INCLINATION":97.4003,"RA_OF_ASC_NODE":145.3477,"ARG_OF_PERICENTER":353.1124,"MEAN_ANOMALY":6.9987,"EPHEMERIS_TYPE":0,"CLASSIFICATION_TYPE":"U","NORAD_CAT_ID":67289,"ELEMENT_SET_NO":999,"REV_AT_EPOCH":1086,"BSTAR":0.00068712431,"MEAN_MOTION_DOT":0.00016315,"MEAN_MOTION_DDOT":0}]
